0 SL-8 DEB
1 21234U 91009CT  13283.60708437  .00000006  00000-0  16488-3 0  9720
2 21234 074.0099 348.1846 0123278 130.5400 351.5679 12.32252009 16125
0 SL-8 DEB
1 21234U 91009CT  13285.64485723  .00000080  00000-0  76377-3 0  9732
2 21234 074.0098 345.5626 0123176 127.5592 031.3764 12.32252558 16370
0 SL-8 DEB
1 21234U 91009CT  13288.88154206  .00000056  00000-0  56876-3 0  9746
2 21234 074.0093 341.3976 0122938 122.8182 349.7067 12.32253154 16774
0 SL-8 DEB
1 21234U 91009CT  13291.13583355  .00000049  00000-0  50981-3 0  9753
2 21234 074.0090 338.4957 0122848 119.5137 270.0258 12.32253755 17057
0 SL-8 DEB
1 21234U 91009CT  13293.25634191  .00000045  00000-0  47871-3 0  9764
2 21234 074.0085 335.7656 0122770 116.4329 316.8441 12.32254032 17311
0 SL-8 DEB
1 21234U 91009CT  13296.17598396  .00000047  00000-0  49887-3 0  9776
2 21234 074.0084 332.0067 0122681 112.1480 308.7557 12.32254274 17673
